{
  "type": "FeatureCollection",
  "features": [
    {
      "type": "Feature",
      "properties": {
        "norad_id": 29486,
        "name": "GPS BIIRM-2 (PRN 31)",
        "group": "gps-ops",
        "lat": -10.636539813201084,
        "lon": 150.69505920257825,
        "alt_km": 20062.931099430218,
        "timestamp": "2025-12-22T11:33:20.698310+00:00",
        "meta_object_name": "GPS BIIRM-2 (PRN 31)",
        "meta_object_id": "2006-042A",
        "meta_epoch": "2025-12-21T12:25:39.335232",
        "meta_mean_motion": 2.00553827,
        "meta_eccentricity": 0.01073004,
        "meta_inclination": 54.6951,
        "meta_ra_of_asc_node": 158.3926,
        "meta_arg_of_pericenter": 52.1628,
        "meta_mean_anomaly": 320.0686,
        "meta_ephemeris_type": 0,
        "meta_classification_type": "U",
        "meta_norad_cat_id": 29486,
        "meta_element_set_no": 999,
        "meta_rev_at_epoch": 14083,
        "meta_bstar": 0,
        "meta_mean_motion_dot": 7.1e-07,
        "meta_mean_motion_ddot": 0,
        "tle_line1": "1 29486U 06042A   25355.51781638  .00000071  00000+0  00000+0 0  9996",
        "tle_line2": "2 29486  54.6951 158.3926 0107300  52.1628 320.0686  2.00553827140833"
      },
      "geometry": {
        "type": "Point",
        "coordinates": [
          150.69505920257825,
          -10.636539813201084
        ]
      }
    },
    {
      "type": "Feature",
      "properties": {
        "norad_id": 29601,
        "name": "GPS BIIRM-3 (PRN 12)",
        "group": "gps-ops",
        "lat": 35.81275842986135,
        "lon": -108.57240453011028,
        "alt_km": 20002.043384190514,
        "timestamp": "2025-12-22T11:33:20.698324+00:00",
        "meta_object_name": "GPS BIIRM-3 (PRN 12)",
        "meta_object_id": "2006-052A",
        "meta_epoch": "2025-12-20T22:09:19.492992",
        "meta_mean_motion": 2.00574173,
        "meta_eccentricity": 0.0087999,
        "meta_inclination": 54.9689,
        "meta_ra_of_asc_node": 221.0734,
        "meta_arg_of_pericenter": 87.5315,
        "meta_mean_anomaly": 273.5726,
        "meta_ephemeris_type": 0,
        "meta_classification_type": "U",
        "meta_norad_cat_id": 29601,
        "meta_element_set_no": 999,
        "meta_rev_at_epoch": 13983,
        "meta_bstar": 0,
        "meta_mean_motion_dot": 7.4e-07,
        "meta_mean_motion_ddot": 0,
        "tle_line1": "1 29601U 06052A   25354.92314228  .00000074  00000+0  00000+0 0  9990",
        "tle_line2": "2 29601  54.9689 221.0734 0087999  87.5315 273.5726  2.00574173139836"
      },
      "geometry": {
        "type": "Point",
        "coordinates": [
          -108.57240453011028,
          35.81275842986135
        ]
      }
    },
    {
      "type": "Feature",
      "properties": {
        "norad_id": 32260,
        "name": "GPS BIIRM-4 (PRN 15)",
        "group": "gps-ops",
        "lat": -6.383762380661487,
        "lon": -87.97046127940966,
        "alt_km": 20271.135025829633,
        "timestamp": "2025-12-22T11:33:20.698337+00:00",
        "meta_object_name": "GPS BIIRM-4 (PRN 15)",
        "meta_object_id": "2007-047A",
        "meta_epoch": "2025-12-21T17:28:09.130944",
        "meta_mean_motion": 2.005642,
        "meta_eccentricity": 0.0164045,
        "meta_inclination": 53.9611,
        "meta_ra_of_asc_node": 87.3872,
        "meta_arg_of_pericenter": 85.3596,
        "meta_mean_anomaly": 276.5233,
        "meta_ephemeris_type": 0,
        "meta_classification_type": "U",
        "meta_norad_cat_id": 32260,
        "meta_element_set_no": 999,
        "meta_rev_at_epoch": 13325,
        "meta_bstar": 0,
        "meta_mean_motion_dot": -1.7e-07,
        "meta_mean_motion_ddot": 0,
        "tle_line1": "1 32260U 07047A   25355.72788346 -.00000017  00000+0  00000+0 0  9993",
        "tle_line2": "2 32260  53.9611  87.3872 0164045  85.3596 276.5233  2.00564200133252"
      },
      "geometry": {
        "type": "Point",
        "coordinates": [
          -87.97046127940966,
          -6.383762380661487
        ]
      }
    },
    {
      "type": "Feature",
      "properties": {
        "norad_id": 32384,
        "name": "GPS BIIRM-5 (PRN 29)",
        "group": "gps-ops",
        "lat": -34.91788046642611,
        "lon": -107.78341514375472,
        "alt_km": 20262.059533664826,
        "timestamp": "2025-12-22T11:33:20.698349+00:00",
        "meta_object_name": "GPS BIIRM-5 (PRN 29)",
        "meta_object_id": "2007-062A",
        "meta_epoch": "2025-12-19T04:08:10.010976",
        "meta_mean_motion": 2.00577702,
        "meta_eccentricity": 0.00322663,
        "meta_inclination": 55.1765,
        "meta_ra_of_asc_node": 281.388,
        "meta_arg_of_pericenter": 162.2119,
        "meta_mean_anomaly": 283.9132,
        "meta_ephemeris_type": 0,
        "meta_classification_type": "U",
        "meta_norad_cat_id": 32384,
        "meta_element_set_no": 999,
        "meta_rev_at_epoch": 13190,
        "meta_bstar": 0,
        "meta_mean_motion_dot": -3.8e-07,
        "meta_mean_motion_ddot": 0,
        "tle_line1": "1 32384U 07062A   25353.17233809 -.00000038  00000+0  00000+0 0  9996",
        "tle_line2": "2 32384  55.1765 281.3880 0032266 162.2119 283.9132  2.00577702131904"
      },
      "geometry": {
        "type": "Point",
        "coordinates": [
          -107.78341514375472,
          -34.91788046642611
        ]
      }
    },
    {
      "type": "Feature",
      "properties": {
        "norad_id": 32711,
        "name": "GPS BIIRM-6 (PRN 07)",
        "group": "gps-ops",
        "lat": -44.50627682204668,
        "lon": 21.583792610828272,
        "alt_km": 19651.213527914668,
        "timestamp": "2025-12-22T11:33:20.698360+00:00",
        "meta_object_name": "GPS BIIRM-6 (PRN 07)",
        "meta_object_id": "2008-012A",
        "meta_epoch": "2025-12-21T15:33:12.168000",
        "meta_mean_motion": 2.00566008,
        "meta_eccentricity": 0.0202833,
        "meta_inclination": 54.478,
        "meta_ra_of_asc_node": 157.0174,
        "meta_arg_of_pericenter": 245.0506,
        "meta_mean_anomaly": 112.8153,
        "meta_ephemeris_type": 0,
        "meta_classification_type": "U",
        "meta_norad_cat_id": 32711,
        "meta_element_set_no": 999,
        "meta_rev_at_epoch": 13019,
        "meta_bstar": 0,
        "meta_mean_motion_dot": 7e-07,
        "meta_mean_motion_ddot": 0,
        "tle_line1": "1 32711U 08012A   25355.64805750  .00000070  00000+0  00000+0 0  9995",
        "tle_line2": "2 32711  54.4780 157.0174 0202833 245.0506 112.8153  2.00566008130191"
      },
      "geometry": {
        "type": "Point",
        "coordinates": [
          21.583792610828272,
          -44.50627682204668
        ]
      }
    },
    {
      "type": "Feature",
      "properties": {
        "norad_id": 35752,
        "name": "GPS BIIRM-8 (PRN 05)",
        "group": "gps-ops",
        "lat": -54.70198901141569,
        "lon": -73.88598471399389,
        "alt_km": 20325.269980656405,
        "timestamp": "2025-12-22T11:33:20.698371+00:00",
        "meta_object_name": "GPS BIIRM-8 (PRN 05)",
        "meta_object_id": "2009-043A",
        "meta_epoch": "2025-12-20T02:09:52.509312",
        "meta_mean_motion": 2.00565329,
        "meta_eccentricity": 0.00516467,
        "meta_inclination": 56.096,
        "meta_ra_of_asc_node": 34.4932,
        "meta_arg_of_pericenter": 81.7821,
        "meta_mean_anomaly": 251.1308,
        "meta_ephemeris_type": 0,
        "meta_classification_type": "U",
        "meta_norad_cat_id": 35752,
        "meta_element_set_no": 999,
        "meta_rev_at_epoch": 11976,
        "meta_bstar": 0,
        "meta_mean_motion_dot": -6.1e-07,
        "meta_mean_motion_ddot": 0,
        "tle_line1": "1 35752U 09043A   25354.09019108 -.00000061  00000+0  00000+0 0  9991",
        "tle_line2": "2 35752  56.0960  34.4932 0051646  81.7821 251.1308  2.00565329119760"
      },
      "geometry": {
        "type": "Point",
        "coordinates": [
          -73.88598471399389,
          -54.70198901141569
        ]
      }
    },
    {
      "type": "Feature",
      "properties": {
        "norad_id": 36585,
        "name": "GPS BIIF-1  (PRN 25)",
        "group": "gps-ops",
        "lat": 13.281361904412803,
        "lon": -134.5328155541716,
        "alt_km": 19957.362527890076,
        "timestamp": "2025-12-22T11:33:20.698382+00:00",
        "meta_object_name": "GPS BIIF-1  (PRN 25)",
        "meta_object_id": "2010-022A",
        "meta_epoch": "2025-12-21T16:53:11.559264",
        "meta_mean_motion": 2.00553691,
        "meta_eccentricity": 0.0126473,
        "meta_inclination": 54.2987,
        "meta_ra_of_asc_node": 215.7124,
        "meta_arg_of_pericenter": 65.1878,
        "meta_mean_anomaly": 110.7719,
        "meta_ephemeris_type": 0,
        "meta_classification_type": "U",
        "meta_norad_cat_id": 36585,
        "meta_element_set_no": 999,
        "meta_rev_at_epoch": 11403,
        "meta_bstar": 0,
        "meta_mean_motion_dot": 7.5e-07,
        "meta_mean_motion_ddot": 0,
        "tle_line1": "1 36585U 10022A   25355.70360601  .00000075  00000+0  00000+0 0  9995",
        "tle_line2": "2 36585  54.2987 215.7124 0126473  65.1878 110.7719  2.00553691114030"
      },
      "geometry": {
        "type": "Point",
        "coordinates": [
          -134.5328155541716,
          13.281361904412803
        ]
      }
    }
  ]
}